COSMOS 2251 DEB         
1 34789U 93036AAS 17345.49559490  .00001558  00000-0  59881-3 0  9990
2 34789  74.2064 100.5828 0112277   8.5957 110.1857 14.27797580452985
